OBJECT_NAME,OBJECT_ID,EPOCH,MEAN_MOTION,ECCENTRICITY,INCLINATION,RA_OF_ASC_NODE,ARG_OF_PERICENTER,MEAN_ANOMALY,EPHEMERIS_TYPE,CLASSIFICATION_TYPE,NORAD_CAT_ID,ELEMENT_SET_NO,REV_AT_EPOCH,BSTAR,MEAN_MOTION_DOT,MEAN_MOTION_DDOT
KUZGTU 1 (RS47S),2023-091AV,2026-07-06T03:07:51.851136,15.30328423,.0011031,97.5049,251.8078,37.5696,322.6313,0,U,57217,999,16727,.44522357E-3,.13014E-3,0
SONATE-2,2024-043Q,2026-07-05T22:33:17.018784,15.60245655,.00070141,97.5549,338.5082,135.5229,224.6591,0,U,59112,999,13081,.5655617E-3,.46233E-3,0
MESAT1,2024-125G,2026-07-06T04:04:16.049280,15.65526944,.00108396,97.2266,45.1111,140.5474,219.6578,0,U,60209,999,11253,.68614424E-3,.6923E-3,0
OOV-CUBE (TUBSAT-30),2024-128F,2026-07-06T03:38:30.625440,15.02848391,.00422378,61.9939,159.4402,137.9617,222.4729,0,U,60240,999,10896,.18541753E-3,.233E-4,0
COLIBRI-S (RS67S),2024-199M,2026-07-06T04:40:05.497248,15.48569955,.00078462,97.2965,61.2287,194.7852,165.3171,0,U,61746,999,14035,.45280544E-3,.24111E-3,0
HORS 3 (RS81S),2024-199U,2026-07-06T04:39:33.551712,15.56408351,.00059076,97.2945,63.4281,185.0562,175.0635,0,U,61753,999,14051,.59032502E-3,.41756E-3,0
HORS 4 (RS82S),2024-199V,2026-07-06T03:48:25.437600,15.61656483,.00058964,97.2887,64.7225,175.4206,184.7107,0,U,61754,999,14060,.67893379E-3,.58676E-3,0
SIT-2086,2024-199AF,2026-07-06T03:08:49.718400,15.54511187,.00071844,97.2903,63.7743,172.6250,187.5111,0,U,61764,999,13737,.62489792E-3,.41246E-3,0
HYPERVIEW 1G (RS66S),2024-199AP,2026-07-06T03:25:33.519648,15.82169879,.000766,97.2813,67.8953,165.8633,194.2851,0,U,61772,999,13766,.10244472E-2,.214217E-2,0
ALTAIR (RS65S),2024-199AW,2026-07-06T06:00:15.355008,15.37397899,.00111531,97.3004,56.4770,231.3276,128.6972,0,U,61779,999,14004,.22897625E-3,.8329E-4,0
ASRTU-1 (AO-123),2024-199AY,2026-07-06T03:00:00.800064,15.35962149,.00121441,97.2975,55.6257,235.9044,124.1049,0,U,61781,999,13683,.2324146E-3,.8075E-4,0
SAMSAT-IONOSPHERE (RS75S),2024-199BB,2026-07-06T03:06:24.269184,15.59447212,.00080252,97.2910,63.4820,191.1030,169.0051,0,U,61784,999,14051,.74504566E-3,.59236E-3,0
RTU MIREA 1 (RS51S),2024-199BC,2026-07-06T04:09:35.807040,15.63397063,.00081438,97.2894,64.4626,184.6345,175.4840,0,U,61785,999,13743,.75842667E-3,.70288E-3,0
TEVEL2-4,2025-052D,2026-07-05T05:46:13.761984,15.35303959,.0004352,97.3872,82.6666,70.8650,289.3064,0,U,63213,999,7288,.91379E-3,.31346E-3,0
TEVEL2-5,2025-052E,2026-07-05T09:26:28.304160,15.35125326,.0004363,97.3873,82.7629,72.3429,287.8291,0,U,63214,999,7290,.82946E-3,.28273E-3,0
TEVEL2-6,2025-052F,2026-07-06T06:05:04.656768,15.35119295,.0004121,97.3877,83.6095,74.3396,285.8302,0,U,63215,999,7303,.59119234E-3,.20103E-3,0
TEVEL2-1,2025-052H,2026-07-06T03:48:50.154912,15.34555105,.00047628,97.3845,83.1159,78.4385,281.7392,0,U,63217,999,7300,.55360393E-3,.18483E-3,0
TEVEL2-3,2025-052J,2026-07-05T22:58:23.954880,15.34608768,.00045393,97.3854,82.9383,80.4849,279.6907,0,U,63218,999,7297,.60513941E-3,.20249E-3,0
TEVEL2-2,2025-052K,2026-07-05T23:07:24.853440,15.34558685,.00047949,97.3848,82.9231,79.3040,280.8743,0,U,63219,999,7297,.58924801E-3,.19683E-3,0
OTP-2,2025-052AB,2026-07-06T03:15:10.776960,15.24255350,.00083235,97.3842,79.2831,95.4933,264.7254,0,U,63235,999,7275,.28909779E-3,.6992E-4,0
TEVEL2-9,2025-052AD,2026-07-06T03:52:19.610976,15.32531668,.00082211,97.3914,82.4548,81.8124,278.4050,0,U,63237,999,7293,.54690197E-3,.17138E-3,0
TEVEL2-7,2025-052AE,2026-07-05T05:25:57.878112,15.32192740,.0008312,97.3915,81.4293,84.3933,275.8257,0,U,63238,999,7278,.85258E-3,.26511E-3,0
TEVEL2-8,2025-052AF,2026-07-05T05:38:05.938080,15.32178382,.000832,97.3912,81.4140,84.8446,275.3745,0,U,63239,999,7278,.86147E-3,.26777E-3,0
INNOSAT 16 (RS92S7),2025-155C,2026-07-06T03:43:07.150368,15.25670052,.00123066,97.4577,154.2253,115.3643,244.8871,0,U,64878,999,8356,.24138363E-3,.6084E-4,0
GEOSCAN 6 (RS92S6),2025-155D,2026-07-06T03:27:24.215328,15.30531572,.00099316,97.4568,155.7743,107.4952,252.7374,0,U,64879,999,8366,.35765396E-3,.10499E-3,0
GEOSCAN 1 (RS92S1),2025-155E,2026-07-06T03:19:58.666080,15.31167054,.00098724,97.4565,155.9340,107.5613,252.6707,0,U,64880,999,8367,.38394233E-3,.11503E-3,0
239ALFEROV (RS61S),2025-155F,2026-07-06T03:30:12.871584,15.33490077,.00095647,97.4565,156.5679,106.7912,253.4380,0,U,64881,999,8371,.46782992E-3,.15098E-3,0
GEOSCAN 2 (RS92S2),2025-155Q,2026-07-06T03:06:09.333216,15.31425504,.00092671,97.4564,156.0843,97.2549,262.9746,0,U,64890,999,8368,.38653084E-3,.11673E-3,0
GEOSCAN 5 (RS92S5),2025-155R,2026-07-06T03:08:48.189120,15.33800743,.0008547,97.4557,156.6976,110.5410,249.6750,0,U,64891,999,8372,.46526385E-3,.15159E-3,0
GEOSCAN 4 (RS92S4),2025-155S,2026-07-06T04:17:09.708576,15.33964038,.00085411,97.4561,156.7995,110.4195,249.7966,0,U,64892,999,8373,.41759524E-3,.13665E-3,0
