KUZGTU 1 (RS47S)        
1 57217U 23091AV  26187.13046124  .00013014  00000+0  44522-3 0  9990
2 57217  97.5049 251.8078 0011031  37.5696 322.6313 15.30328423167275
SONATE-2                
1 59112U 24043Q   26186.93978031  .00046233  00000+0  56556-3 0  9991
2 59112  97.5549 338.5082 0007014 135.5229 224.6591 15.60245655130818
MESAT1                  
1 60209U 24125G   26187.16963020  .00069230  00000+0  68614-3 0  9999
2 60209  97.2266  45.1111 0010839 140.5474 219.6578 15.65526944112537
OOV-CUBE (TUBSAT-30)    
1 60240U 24128F   26187.15174335  .00002330  00000+0  18542-3 0  9992
2 60240  61.9939 159.4402 0042237 137.9617 222.4729 15.02848391108961
COLIBRI-S (RS67S)       
1 61746U 24199M   26187.19450807  .00024111  00000+0  45281-3 0  9998
2 61746  97.2965  61.2287 0007846 194.7852 165.3171 15.48569955140355
HORS 3 (RS81S)          
1 61753U 24199U   26187.19413833  .00041756  00000+0  59033-3 0  9998
2 61753  97.2945  63.4281 0005907 185.0562 175.0635 15.56408351140518
HORS 4 (RS82S)          
1 61754U 24199V   26187.15862775  .00058676  00000+0  67893-3 0  9990
2 61754  97.2887  64.7225 0005896 175.4206 184.7107 15.61656483140609
SIT-2086                
1 61764U 24199AF  26187.13113100  .00041246  00000+0  62490-3 0  9993
2 61764  97.2903  63.7743 0007184 172.6250 187.5111 15.54511187137372
HYPERVIEW 1G (RS66S)    
1 61772U 24199AP  26187.14274907  .00214217  00000+0  10244-2 0  9995
2 61772  97.2813  67.8953 0007660 165.8633 194.2851 15.82169879137663
ALTAIR (RS65S)          
1 61779U 24199AW  26187.25017772  .00008329  00000+0  22898-3 0  9993
2 61779  97.3004  56.4770 0011153 231.3276 128.6972 15.37397899140044
ASRTU-1 (AO-123)        
1 61781U 24199AY  26187.12500926  .00008075  00000+0  23241-3 0  9991
2 61781  97.2975  55.6257 0012144 235.9044 124.1049 15.35962149136830
SAMSAT-IONOSPHERE (RS7*)
1 61784U 24199BB  26187.12944756  .00059236  00000+0  74505-3 0  9991
2 61784  97.2910  63.4820 0008025 191.1030 169.0051 15.59447212140512
RTU MIREA 1 (RS51S)     
1 61785U 24199BC  26187.17333110  .00070288  00000+0  75843-3 0  9999
2 61785  97.2894  64.4626 0008143 184.6345 175.4840 15.63397063137433
TEVEL2-4                
1 63213U 25052D   26186.24043706  .00031346  00000+0  91379-3 0  9996
2 63213  97.3872  82.6666 0004352  70.8650 289.3064 15.35303959 72887
TEVEL2-5                
1 63214U 25052E   26186.39338315  .00028273  00000+0  82946-3 0  9991
2 63214  97.3873  82.7629 0004363  72.3429 287.8291 15.35125326 72900
TEVEL2-6                
1 63215U 25052F   26187.25352612  .00020103  00000+0  59119-3 0  9994
2 63215  97.3877  83.6095 0004121  74.3396 285.8302 15.35119295 73033
TEVEL2-1                
1 63217U 25052H   26187.15891383  .00018483  00000+0  55360-3 0  9990
2 63217  97.3845  83.1159 0004762  78.4385 281.7392 15.34555105 73004
TEVEL2-3                
1 63218U 25052J   26186.95722170  .00020249  00000+0  60514-3 0  9995
2 63218  97.3854  82.9383 0004539  80.4849 279.6907 15.34608768 72978
TEVEL2-2                
1 63219U 25052K   26186.96348210  .00019683  00000+0  58925-3 0  9999
2 63219  97.3848  82.9231 0004794  79.3040 280.8743 15.34558685 72971
OTP-2                   
1 63235U 25052AB  26187.13554140  .00006992  00000+0  28910-3 0  9998
2 63235  97.3842  79.2831 0008323  95.4933 264.7254 15.24255350 72756
TEVEL2-9                
1 63237U 25052AD  26187.16133809  .00017138  00000+0  54690-3 0  9996
2 63237  97.3914  82.4548 0008221  81.8124 278.4050 15.32531668 72931
TEVEL2-7                
1 63238U 25052AE  26186.22636433  .00026511  00000+0  85258-3 0  9993
2 63238  97.3915  81.4293 0008312  84.3933 275.8257 15.32192740 72783
TEVEL2-8                
1 63239U 25052AF  26186.23479095  .00026777  00000+0  86147-3 0  9996
2 63239  97.3912  81.4140 0008320  84.8446 275.3745 15.32178382 72788
INNOSAT 16 (RS92S7)     
1 64878U 25155C   26187.15494387  .00006084  00000+0  24138-3 0  9994
2 64878  97.4577 154.2253 0012306 115.3643 244.8871 15.25670052 83560
GEOSCAN 6 (RS92S6)      
1 64879U 25155D   26187.14403027  .00010499  00000+0  35765-3 0  9998
2 64879  97.4568 155.7743 0009931 107.4952 252.7374 15.30531572 83662
GEOSCAN 1 (RS92S1)      
1 64880U 25155E   26187.13887345  .00011503  00000+0  38394-3 0  9996
2 64880  97.4565 155.9340 0009872 107.5613 252.6707 15.31167054 83676
239ALFEROV (RS61S)      
1 64881U 25155F   26187.14598231  .00015098  00000+0  46783-3 0  9995
2 64881  97.4565 156.5679 0009564 106.7912 253.4380 15.33490077 83717
GEOSCAN 2 (RS92S2)      
1 64890U 25155Q   26187.12927469  .00011673  00000+0  38653-3 0  9994
2 64890  97.4564 156.0843 0009267  97.2549 262.9746 15.31425504 83682
GEOSCAN 5 (RS92S5)      
1 64891U 25155R   26187.13111330  .00015159  00000+0  46526-3 0  9999
2 64891  97.4557 156.6976 0008547 110.5410 249.6750 15.33800743 83720
GEOSCAN 4 (RS92S4)      
1 64892U 25155S   26187.17858459  .00013665  00000+0  41760-3 0  9999
2 64892  97.4561 156.7995 0008541 110.4195 249.7966 15.33964038 83730
